ONEWEB-0711             
1 55174U 23004AL  25343.50175307  .00000410  00000+0  11218-2 0  9995
2 55174  87.8867  58.8335 0001465 132.7341 227.3910 13.11413453140978
ONEWEB-0713             
1 55175U 23004AM  25343.44410140  .00000470  00000+0  12913-2 0  9995
2 55175  87.8858  58.8477 0001522 119.1743 240.9537 13.11414751140951
ONEWEB-0715             
1 55176U 23004AN  25343.51530563  .00000632  00000+0  17482-2 0  9992
2 55176  87.8861  58.8339 0001082  83.0074 277.1177 13.11418456141005
ONEWEB-0716             
1 55177U 23004AP  25343.43254470  .00000149  00000+0  35117-3 0  9993
2 55177  87.9113  43.6038 0001991  97.3608 262.7750 13.17649155142595
ONEWEB-0717             
1 55178U 23004AQ  25343.41566639  .00000106  00000+0  23901-3 0  9996
2 55178  87.9122  43.5776 0001331 122.9691 237.1569 13.17650162142649
ONEWEB-0719             
1 55179U 23004AR  25343.42578846  .00000051  00000+0  98383-4 0  9997
2 55179  87.9125  43.5582 0002000 102.8221 257.3134 13.17649671142597
ONEWEB-0530             
1 55796U 23029A   25343.62270368  .00000124  00000+0  27393-3 0  9992
2 55796  87.9193 312.2887 0001640 100.0139 260.1180 13.20774154136122
ONEWEB-0534             
1 55797U 23029B   25343.61008058  .00000061  00000+0  11743-3 0  9999
2 55797  87.9191 312.2917 0001940  83.9366 276.1988 13.20774585136120
ONEWEB-0556             
1 55798U 23029C   25343.46489975  .00000085  00000+0  17599-3 0  9995
2 55798  87.9194 312.3204 0002617  96.9419 263.2012 13.20772153136101
ONEWEB-0562             
1 55799U 23029D   25343.45227637  .00000048  00000+0  85250-4 0  9999
2 55799  87.9192 312.3055 0001989 110.5602 249.5745 13.20771132136108
ONEWEB-0563             
1 55800U 23029E   25343.44594347  .00000101  00000+0  21542-3 0  9999
2 55800  87.9194 312.3340 0002105  82.5088 277.6284 13.20774187136098
ONEWEB-0564             
1 55801U 23029F   25343.43963262  .00000068  00000+0  13586-3 0  9996
2 55801  87.9187 312.3118 0001773  98.2999 261.8336 13.20769754136108
ONEWEB-0638             
1 55802U 23029G   25343.47920412  .00000166  00000+0  41326-3 0  9993
2 55802  87.8979 327.5638 0002068  98.2638 261.8726 13.14504093134477
ONEWEB-0639             
1 55803U 23029H   25343.48993329  .00000148  00000+0  33771-3 0  9997
2 55803  87.9188 342.7268 0002590  68.9098 291.2311 13.19724453133883
ONEWEB-0640             
1 55804U 23029J   25343.41259458  .00000316  00000+0  81711-3 0  9993
2 55804  87.8985 327.5644 0002511  92.2105 267.9312 13.14503789134489
ONEWEB-0641             
1 55805U 23029K   25343.48519312  .00000060  00000+0  11681-3 0  9994
2 55805  87.9198 342.7084 0001882  84.0347 276.1000 13.19724759133898
ONEWEB-0642             
1 55806U 23029L   25343.48045658  .00000042  00000+0  72552-4 0  9997
2 55806  87.9190 342.7328 0002238  67.1992 292.9377 13.19724944133884
