[{"OBJECT_NAME":"ONEWEB-0711","OBJECT_ID":"2023-004AL","EPOCH":"2025-12-09T12:02:31.465248","MEAN_MOTION":13.11413453,"ECCENTRICITY":0.00014651,"INCLINATION":87.8867,"RA_OF_ASC_NODE":58.8335,"ARG_OF_PERICENTER":132.7341,"MEAN_ANOMALY":227.391,"EPHEMERIS_TYPE":0,"CLASSIFICATION_TYPE":"U","NORAD_CAT_ID":55174,"ELEMENT_SET_NO":999,"REV_AT_EPOCH":14097,"BSTAR":0.0011218109,"MEAN_MOTION_DOT":4.1e-6,"MEAN_MOTION_DDOT":0},{"OBJECT_NAME":"ONEWEB-0713","OBJECT_ID":"2023-004AM","EPOCH":"2025-12-09T10:39:30.360960","MEAN_MOTION":13.11414751,"ECCENTRICITY":0.00015227,"INCLINATION":87.8858,"RA_OF_ASC_NODE":58.8477,"ARG_OF_PERICENTER":119.1743,"MEAN_ANOMALY":240.9537,"EPHEMERIS_TYPE":0,"CLASSIFICATION_TYPE":"U","NORAD_CAT_ID":55175,"ELEMENT_SET_NO":999,"REV_AT_EPOCH":14095,"BSTAR":0.0012912578,"MEAN_MOTION_DOT":4.7e-6,"MEAN_MOTION_DDOT":0},{"OBJECT_NAME":"ONEWEB-0715","OBJECT_ID":"2023-004AN","EPOCH":"2025-12-09T12:22:02.406432","MEAN_MOTION":13.11418456,"ECCENTRICITY":0.00010821,"INCLINATION":87.8861,"RA_OF_ASC_NODE":58.8339,"ARG_OF_PERICENTER":83.0074,"MEAN_ANOMALY":277.1177,"EPHEMERIS_TYPE":0,"CLASSIFICATION_TYPE":"U","NORAD_CAT_ID":55176,"ELEMENT_SET_NO":999,"REV_AT_EPOCH":14100,"BSTAR":0.0017481879,"MEAN_MOTION_DOT":6.32e-6,"MEAN_MOTION_DDOT":0},{"OBJECT_NAME":"ONEWEB-0716","OBJECT_ID":"2023-004AP","EPOCH":"2025-12-09T10:22:51.862080","MEAN_MOTION":13.17649155,"ECCENTRICITY":0.0001991,"INCLINATION":87.9113,"RA_OF_ASC_NODE":43.6038,"ARG_OF_PERICENTER":97.3608,"MEAN_ANOMALY":262.775,"EPHEMERIS_TYPE":0,"CLASSIFICATION_TYPE":"U","NORAD_CAT_ID":55177,"ELEMENT_SET_NO":999,"REV_AT_EPOCH":14259,"BSTAR":0.00035116894,"MEAN_MOTION_DOT":1.49e-6,"MEAN_MOTION_DDOT":0},{"OBJECT_NAME":"ONEWEB-0717","OBJECT_ID":"2023-004AQ","EPOCH":"2025-12-09T09:58:33.576096","MEAN_MOTION":13.17650162,"ECCENTRICITY":0.00013319,"INCLINATION":87.9122,"RA_OF_ASC_NODE":43.5776,"ARG_OF_PERICENTER":122.9691,"MEAN_ANOMALY":237.1569,"EPHEMERIS_TYPE":0,"CLASSIFICATION_TYPE":"U","NORAD_CAT_ID":55178,"ELEMENT_SET_NO":999,"REV_AT_EPOCH":14264,"BSTAR":0.00023901025,"MEAN_MOTION_DOT":1.06e-6,"MEAN_MOTION_DDOT":0},{"OBJECT_NAME":"ONEWEB-0719","OBJECT_ID":"2023-004AR","EPOCH":"2025-12-09T10:13:08.122944","MEAN_MOTION":13.17649671,"ECCENTRICITY":0.0002,"INCLINATION":87.9125,"RA_OF_ASC_NODE":43.5582,"ARG_OF_PERICENTER":102.8221,"MEAN_ANOMALY":257.3134,"EPHEMERIS_TYPE":0,"CLASSIFICATION_TYPE":"U","NORAD_CAT_ID":55179,"ELEMENT_SET_NO":999,"REV_AT_EPOCH":14259,"BSTAR":9.8383461e-5,"MEAN_MOTION_DOT":5.1e-7,"MEAN_MOTION_DDOT":0},{"OBJECT_NAME":"ONEWEB-0530","OBJECT_ID":"2023-029A","EPOCH":"2025-12-09T14:56:41.597952","MEAN_MOTION":13.20774154,"ECCENTRICITY":0.00016405,"INCLINATION":87.9193,"RA_OF_ASC_NODE":312.2887,"ARG_OF_PERICENTER":100.0139,"MEAN_ANOMALY":260.118,"EPHEMERIS_TYPE":0,"CLASSIFICATION_TYPE":"U","NORAD_CAT_ID":55796,"ELEMENT_SET_NO":999,"REV_AT_EPOCH":13612,"BSTAR":0.00027393448,"MEAN_MOTION_DOT":1.24e-6,"MEAN_MOTION_DDOT":0},{"OBJECT_NAME":"ONEWEB-0534","OBJECT_ID":"2023-029B","EPOCH":"2025-12-09T14:38:30.962112","MEAN_MOTION":13.20774585,"ECCENTRICITY":0.00019408,"INCLINATION":87.9191,"RA_OF_ASC_NODE":312.2917,"ARG_OF_PERICENTER":83.9366,"MEAN_ANOMALY":276.1988,"EPHEMERIS_TYPE":0,"CLASSIFICATION_TYPE":"U","NORAD_CAT_ID":55797,"ELEMENT_SET_NO":999,"REV_AT_EPOCH":13612,"BSTAR":0.00011742505,"MEAN_MOTION_DOT":6.1e-7,"MEAN_MOTION_DDOT":0},{"OBJECT_NAME":"ONEWEB-0556","OBJECT_ID":"2023-029C","EPOCH":"2025-12-09T11:09:27.338400","MEAN_MOTION":13.20772153,"ECCENTRICITY":0.00026177,"INCLINATION":87.9194,"RA_OF_ASC_NODE":312.3204,"ARG_OF_PERICENTER":96.9419,"MEAN_ANOMALY":263.2012,"EPHEMERIS_TYPE":0,"CLASSIFICATION_TYPE":"U","NORAD_CAT_ID":55798,"ELEMENT_SET_NO":999,"REV_AT_EPOCH":13610,"BSTAR":0.00017599391,"MEAN_MOTION_DOT":8.5e-7,"MEAN_MOTION_DDOT":0},{"OBJECT_NAME":"ONEWEB-0562","OBJECT_ID":"2023-029D","EPOCH":"2025-12-09T10:51:16.678368","MEAN_MOTION":13.20771132,"ECCENTRICITY":0.00019898,"INCLINATION":87.9192,"RA_OF_ASC_NODE":312.3055,"ARG_OF_PERICENTER":110.5602,"MEAN_ANOMALY":249.5745,"EPHEMERIS_TYPE":0,"CLASSIFICATION_TYPE":"U","NORAD_CAT_ID":55799,"ELEMENT_SET_NO":999,"REV_AT_EPOCH":13610,"BSTAR":8.5250209e-5,"MEAN_MOTION_DOT":4.8e-7,"MEAN_MOTION_DDOT":0},{"OBJECT_NAME":"ONEWEB-0563","OBJECT_ID":"2023-029E","EPOCH":"2025-12-09T10:42:09.515808","MEAN_MOTION":13.20774187,"ECCENTRICITY":0.00021059,"INCLINATION":87.9194,"RA_OF_ASC_NODE":312.334,"ARG_OF_PERICENTER":82.5088,"MEAN_ANOMALY":277.6284,"EPHEMERIS_TYPE":0,"CLASSIFICATION_TYPE":"U","NORAD_CAT_ID":55800,"ELEMENT_SET_NO":999,"REV_AT_EPOCH":13609,"BSTAR":0.00021541536,"MEAN_MOTION_DOT":1.01e-6,"MEAN_MOTION_DDOT":0},{"OBJECT_NAME":"ONEWEB-0564","OBJECT_ID":"2023-029F","EPOCH":"2025-12-09T10:33:04.258368","MEAN_MOTION":13.20769754,"ECCENTRICITY":0.00017735,"INCLINATION":87.9187,"RA_OF_ASC_NODE":312.3118,"ARG_OF_PERICENTER":98.2999,"MEAN_ANOMALY":261.8336,"EPHEMERIS_TYPE":0,"CLASSIFICATION_TYPE":"U","NORAD_CAT_ID":55801,"ELEMENT_SET_NO":999,"REV_AT_EPOCH":13610,"BSTAR":0.00013586465,"MEAN_MOTION_DOT":6.8e-7,"MEAN_MOTION_DDOT":0},{"OBJECT_NAME":"ONEWEB-0638","OBJECT_ID":"2023-029G","EPOCH":"2025-12-09T11:30:03.235968","MEAN_MOTION":13.14504093,"ECCENTRICITY":0.00020682,"INCLINATION":87.8979,"RA_OF_ASC_NODE":327.5638,"ARG_OF_PERICENTER":98.2638,"MEAN_ANOMALY":261.8726,"EPHEMERIS_TYPE":0,"CLASSIFICATION_TYPE":"U","NORAD_CAT_ID":55802,"ELEMENT_SET_NO":999,"REV_AT_EPOCH":13447,"BSTAR":0.00041326416,"MEAN_MOTION_DOT":1.66e-6,"MEAN_MOTION_DDOT":0},{"OBJECT_NAME":"ONEWEB-0639","OBJECT_ID":"2023-029H","EPOCH":"2025-12-09T11:45:30.236256","MEAN_MOTION":13.19724453,"ECCENTRICITY":0.00025903,"INCLINATION":87.9188,"RA_OF_ASC_NODE":342.7268,"ARG_OF_PERICENTER":68.9098,"MEAN_ANOMALY":291.2311,"EPHEMERIS_TYPE":0,"CLASSIFICATION_TYPE":"U","NORAD_CAT_ID":55803,"ELEMENT_SET_NO":999,"REV_AT_EPOCH":13388,"BSTAR":0.00033771095,"MEAN_MOTION_DOT":1.48e-6,"MEAN_MOTION_DDOT":0},{"OBJECT_NAME":"ONEWEB-0640","OBJECT_ID":"2023-029J","EPOCH":"2025-12-09T09:54:08.171712","MEAN_MOTION":13.14503789,"ECCENTRICITY":0.00025118,"INCLINATION":87.8985,"RA_OF_ASC_NODE":327.5644,"ARG_OF_PERICENTER":92.2105,"MEAN_ANOMALY":267.9312,"EPHEMERIS_TYPE":0,"CLASSIFICATION_TYPE":"U","NORAD_CAT_ID":55804,"ELEMENT_SET_NO":999,"REV_AT_EPOCH":13448,"BSTAR":0.00081710771,"MEAN_MOTION_DOT":3.16e-6,"MEAN_MOTION_DDOT":0},{"OBJECT_NAME":"ONEWEB-0641","OBJECT_ID":"2023-029K","EPOCH":"2025-12-09T11:38:40.685568","MEAN_MOTION":13.19724759,"ECCENTRICITY":0.00018827,"INCLINATION":87.9198,"RA_OF_ASC_NODE":342.7084,"ARG_OF_PERICENTER":84.0347,"MEAN_ANOMALY":276.1,"EPHEMERIS_TYPE":0,"CLASSIFICATION_TYPE":"U","NORAD_CAT_ID":55805,"ELEMENT_SET_NO":999,"REV_AT_EPOCH":13389,"BSTAR":0.00011681221,"MEAN_MOTION_DOT":6.0e-7,"MEAN_MOTION_DDOT":0},{"OBJECT_NAME":"ONEWEB-0642","OBJECT_ID":"2023-029L","EPOCH":"2025-12-09T11:31:51.448512","MEAN_MOTION":13.19724944,"ECCENTRICITY":0.00022386,"INCLINATION":87.919,"RA_OF_ASC_NODE":342.7328,"ARG_OF_PERICENTER":67.1992,"MEAN_ANOMALY":292.9377,"EPHEMERIS_TYPE":0,"CLASSIFICATION_TYPE":"U","NORAD_CAT_ID":55806,"ELEMENT_SET_NO":999,"REV_AT_EPOCH":13388,"BSTAR":7.2551946e-5,"MEAN_MOTION_DOT":4.2e-7,"MEAN_MOTION_DDOT":0}]
